{"type": "FeatureCollection", "features": [ {"type": "Feature", "properties": {"norad_id": 66395, "name": "STARLINK-35681", "group": "last-30-days", "lat": 51.815093029114095, "lon": 54.059413840759355, "alt_km": 410.5780996683561, "timestamp": "2025-12-03T19:33:05.755359+00:00", "meta": {"OBJECT_NAME": "STARLINK-35681", "OBJECT_ID": "2025-257R", "EPOCH": "2025-12-03T09:49:47.662752", "MEAN_MOTION": 15.49325467, "ECCENTRICITY": 0.0001507, "INCLINATION": 53.159, "RA_OF_ASC_NODE": 308.4132, "ARG_OF_PERICENTER": 97.3253, "MEAN_ANOMALY": 262.7928, "EPHEMERIS_TYPE": 0, "CLASSIFICATION_TYPE": "U", "NORAD_CAT_ID": 66395, "ELEMENT_SET_NO": 999, "REV_AT_EPOCH": 486, "BSTAR": 0.00099187, "MEAN_MOTION_DOT": 0.00055138, "MEAN_MOTION_DDOT": 0}, "tle": {"line1": "1 66395U 25257R   25337.40957943  .00055138  00000+0  99187-3 0  9999", "line2": "2 66395  53.1590 308.4132 0001507  97.3253 262.7928 15.49325467  4867"}}, "geometry": {"type": "Point", "coordinates": [54.059413840759355, 51.815093029114095]}}, {"type": "Feature", "properties": {"norad_id": 66396, "name": "STARLINK-35669", "group": "last-30-days", "lat": 51.31265426889442, "lon": 57.036775390670556, "alt_km": 410.7207095305821, "timestamp": "2025-12-03T19:33:05.755369+00:00", "meta": {"OBJECT_NAME": "STARLINK-35669", "OBJECT_ID": "2025-257S", "EPOCH": "2025-12-03T09:49:17.918688", "MEAN_MOTION": 15.49325911, "ECCENTRICITY": 0.0001407, "INCLINATION": 53.1588, "RA_OF_ASC_NODE": 308.4101, "ARG_OF_PERICENTER": 102.3886, "MEAN_ANOMALY": 257.7281, "EPHEMERIS_TYPE": 0, "CLASSIFICATION_TYPE": "U", "NORAD_CAT_ID": 66396, "ELEMENT_SET_NO": 999, "REV_AT_EPOCH": 493, "BSTAR": 0.0009271, "MEAN_MOTION_DOT": 0.00051484, "MEAN_MOTION_DDOT": 0}, "tle": {"line1": "1 66396U 25257S   25337.40923517  .00051484  00000+0  92710-3 0  9995", "line2": "2 66396  53.1588 308.4101 0001407 102.3886 257.7281 15.49325911  4937"}}, "geometry": {"type": "Point", "coordinates": [57.036775390670556, 51.31265426889442]}}, {"type": "Feature", "properties": {"norad_id": 66397, "name": "STARLINK-35510", "group": "last-30-days", "lat": 50.72352084520316, "lon": 60.00675567210763, "alt_km": 410.7440636349256, "timestamp": "2025-12-03T19:33:05.755379+00:00", "meta": {"OBJECT_NAME": "STARLINK-35510", "OBJECT_ID": "2025-257T", "EPOCH": "2025-12-03T09:48:48.187584", "MEAN_MOTION": 15.4934023, "ECCENTRICITY": 0.0001381, "INCLINATION": 53.1588, "RA_OF_ASC_NODE": 308.4085, "ARG_OF_PERICENTER": 92.3379, "MEAN_ANOMALY": 267.7789, "EPHEMERIS_TYPE": 0, "CLASSIFICATION_TYPE": "U", "NORAD_CAT_ID": 66397, "ELEMENT_SET_NO": 999, "REV_AT_EPOCH": 493, "BSTAR": 0.0013191, "MEAN_MOTION_DOT": 0.0007369, "MEAN_MOTION_DDOT": 0}, "tle": {"line1": "1 66397U 25257T   25337.40889106  .00073690  00000+0  13191-2 0  9999", "line2": "2 66397  53.1588 308.4085 0001381  92.3379 267.7789 15.49340230  4930"}}, "geometry": {"type": "Point", "coordinates": [60.00675567210763, 50.72352084520316]}}, {"type": "Feature", "properties": {"norad_id": 66398, "name": "STARLINK-35642", "group": "last-30-days", "lat": 50.07358238771157, "lon": 62.84504860885951, "alt_km": 410.71036554548846, "timestamp": "2025-12-03T19:33:05.755391+00:00", "meta": {"OBJECT_NAME": "STARLINK-35642", "OBJECT_ID": "2025-257U", "EPOCH": "2025-12-03T09:48:18.698400", "MEAN_MOTION": 15.49340819, "ECCENTRICITY": 0.0001523, "INCLINATION": 53.1589, "RA_OF_ASC_NODE": 308.4057, "ARG_OF_PERICENTER": 89.0323, "MEAN_ANOMALY": 271.0861, "EPHEMERIS_TYPE": 0, "CLASSIFICATION_TYPE": "U", "NORAD_CAT_ID": 66398, "ELEMENT_SET_NO": 999, "REV_AT_EPOCH": 493, "BSTAR": 0.0017056, "MEAN_MOTION_DOT": 0.00095686, "MEAN_MOTION_DDOT": 0}, "tle": {"line1": "1 66398U 25257U   25337.40854975  .00095686  00000+0  17056-2 0  9999", "line2": "2 66398  53.1589 308.4057 0001523  89.0323 271.0861 15.49340819  4933"}}, "geometry": {"type": "Point", "coordinates": [62.84504860885951, 50.07358238771157]}}, {"type": "Feature", "properties": {"norad_id": 66399, "name": "STARLINK-35657", "group": "last-30-days", "lat": 49.35657719475561, "lon": 65.6020929307306, "alt_km": 410.81319788642395, "timestamp": "2025-12-03T19:33:05.755403+00:00", "meta": {"OBJECT_NAME": "STARLINK-35657", "OBJECT_ID": "2025-257V", "EPOCH": "2025-12-03T09:47:49.011360", "MEAN_MOTION": 15.49341076, "ECCENTRICITY": 0.000152, "INCLINATION": 53.1589, "RA_OF_ASC_NODE": 308.4035, "ARG_OF_PERICENTER": 89.0998, "MEAN_ANOMALY": 271.0185, "EPHEMERIS_TYPE": 0, "CLASSIFICATION_TYPE": "U", "NORAD_CAT_ID": 66399, "ELEMENT_SET_NO": 999, "REV_AT_EPOCH": 493, "BSTAR": 0.0017712, "MEAN_MOTION_DOT": 0.00099437, "MEAN_MOTION_DDOT": 0}, "tle": {"line1": "1 66399U 25257V   25337.40820615  .00099437  00000+0  17712-2 0  9991", "line2": "2 66399  53.1589 308.4035 0001520  89.0998 271.0185 15.49341076  4930"}}, "geometry": {"type": "Point", "coordinates": [65.6020929307306, 49.35657719475561]}}, {"type": "Feature", "properties": {"norad_id": 66400, "name": "STARLINK-35667", "group": "last-30-days", "lat": 47.74268747535141, "lon": 70.84262062205813, "alt_km": 411.0228080379393, "timestamp": "2025-12-03T19:33:05.755414+00:00", "meta": {"OBJECT_NAME": "STARLINK-35667", "OBJECT_ID": "2025-257W", "EPOCH": "2025-12-03T09:46:49.656288", "MEAN_MOTION": 15.49337573, "ECCENTRICITY": 0.0001596, "INCLINATION": 53.1591, "RA_OF_ASC_NODE": 308.3982, "ARG_OF_PERICENTER": 93.3557, "MEAN_ANOMALY": 266.7634, "EPHEMERIS_TYPE": 0, "CLASSIFICATION_TYPE": "U", "NORAD_CAT_ID": 66400, "ELEMENT_SET_NO": 999, "REV_AT_EPOCH": 493, "BSTAR": 0.0016029, "MEAN_MOTION_DOT": 0.00089823, "MEAN_MOTION_DDOT": 0}, "tle": {"line1": "1 66400U 25257W   25337.40751917  .00089823  00000+0  16029-2 0  9990", "line2": "2 66400  53.1591 308.3982 0001596  93.3557 266.7634 15.49337573  4935"}}, "geometry": {"type": "Point", "coordinates": [70.84262062205813, 47.74268747535141]}}, {"type": "Feature", "properties": {"norad_id": 66401, "name": "STARLINK-35668", "group": "last-30-days", "lat": 46.860343717938264, "lon": 73.30856937260964, "alt_km": 411.43615811188556, "timestamp": "2025-12-03T19:33:05.755424+00:00", "meta": {"OBJECT_NAME": "STARLINK-35668", "OBJECT_ID": "2025-257X", "EPOCH": "2025-12-03T09:46:19.901856", "MEAN_MOTION": 15.49325274, "ECCENTRICITY": 0.000129, "INCLINATION": 53.1591, "RA_OF_ASC_NODE": 308.3958, "ARG_OF_PERICENTER": 92.5031, "MEAN_ANOMALY": 267.6125, "EPHEMERIS_TYPE": 0, "CLASSIFICATION_TYPE": "U", "NORAD_CAT_ID": 66401, "ELEMENT_SET_NO": 999, "REV_AT_EPOCH": 493, "BSTAR": 0.001307, "MEAN_MOTION_DOT": 0.00072963, "MEAN_MOTION_DDOT": 0}, "tle": {"line1": "1 66401U 25257X   25337.40717479  .00072963  00000+0  13070-2 0  9996", "line2": "2 66401  53.1591 308.3958 0001290  92.5031 267.6125 15.49325274  4938"}}, "geometry": {"type": "Point", "coordinates": [73.30856937260964, 46.860343717938264]}}, {"type": "Feature", "properties": {"norad_id": 66402, "name": "STARLINK-35644", "group": "last-30-days", "lat": 48.58385113603542, "lon": 68.24939538563041, "alt_km": 411.0614646521417, "timestamp": "2025-12-03T19:33:05.755434+00:00", "meta": {"OBJECT_NAME": "STARLINK-35644", "OBJECT_ID": "2025-257Y", "EPOCH": "2025-12-03T09:47:19.224960", "MEAN_MOTION": 15.49336186, "ECCENTRICITY": 0.000135, "INCLINATION": 53.1589, "RA_OF_ASC_NODE": 308.4006, "ARG_OF_PERICENTER": 97.6608, "MEAN_ANOMALY": 262.4554, "EPHEMERIS_TYPE": 0, "CLASSIFICATION_TYPE": "U", "NORAD_CAT_ID": 66402, "ELEMENT_SET_NO": 999, "REV_AT_EPOCH": 493, "BSTAR": 0.0014419, "MEAN_MOTION_DOT": 0.00080654, "MEAN_MOTION_DDOT": 0}, "tle": {"line1": "1 66402U 25257Y   25337.40786140  .00080654  00000+0  14419-2 0  9992", "line2": "2 66402  53.1589 308.4006 0001350  97.6608 262.4554 15.49336186  4937"}}, "geometry": {"type": "Point", "coordinates": [68.24939538563041, 48.58385113603542]}}, {"type": "Feature", "properties": {"norad_id": 66403, "name": "STARLINK-35602", "group": "last-30-days", "lat": 45.89841154187398, "lon": 75.76107203718219, "alt_km": 411.3545282007708, "timestamp": "2025-12-03T19:33:05.755444+00:00", "meta": {"OBJECT_NAME": "STARLINK-35602", "OBJECT_ID": "2025-257Z", "EPOCH": "2025-12-03T09:45:50.213088", "MEAN_MOTION": 15.49337898, "ECCENTRICITY": 0.0001535, "INCLINATION": 53.1589, "RA_OF_ASC_NODE": 308.3937, "ARG_OF_PERICENTER": 95.6566, "MEAN_ANOMALY": 264.4619, "EPHEMERIS_TYPE": 0, "CLASSIFICATION_TYPE": "U", "NORAD_CAT_ID": 66403, "ELEMENT_SET_NO": 999, "REV_AT_EPOCH": 493, "BSTAR": 0.0014761, "MEAN_MOTION_DOT": 0.00082605, "MEAN_MOTION_DDOT": 0}, "tle": {"line1": "1 66403U 25257Z   25337.40683117  .00082605  00000+0  14761-2 0  9991", "line2": "2 66403  53.1589 308.3937 0001535  95.6566 264.4619 15.49337898  4931"}}, "geometry": {"type": "Point", "coordinates": [75.76107203718219, 45.89841154187398]}}, {"type": "Feature", "properties": {"norad_id": 66404, "name": "STARLINK-35691", "group": "last-30-days", "lat": 44.90683904351142, "lon": 78.08016331812583, "alt_km": 411.651281854628, "timestamp": "2025-12-03T19:33:05.755454+00:00", "meta": {"OBJECT_NAME": "STARLINK-35691", "OBJECT_ID": "2025-257AA", "EPOCH": "2025-12-03T09:45:20.526912", "MEAN_MOTION": 15.49334654, "ECCENTRICITY": 0.0001363, "INCLINATION": 53.1589, "RA_OF_ASC_NODE": 308.391, "ARG_OF_PERICENTER": 95.3443, "MEAN_ANOMALY": 264.7722, "EPHEMERIS_TYPE": 0, "CLASSIFICATION_TYPE": "U", "NORAD_CAT_ID": 66404, "ELEMENT_SET_NO": 999, "REV_AT_EPOCH": 493, "BSTAR": 0.0013375, "MEAN_MOTION_DOT": 0.00074719, "MEAN_MOTION_DDOT": 0}, "tle": {"line1": "1 66404U 25257AA  25337.40648758  .00074719  00000+0  13375-2 0  9991", "line2": "2 66404  53.1589 308.3910 0001363  95.3443 264.7722 15.49334654  4938"}}, "geometry": {"type": "Point", "coordinates": [78.08016331812583, 44.90683904351142]}}]}